{
  "type": "FeatureCollection",
  "features": [
    {
      "type": "Feature",
      "properties": {
        "norad_id": 66341,
        "name": "STARLINK-35522",
        "group": "last-30-days",
        "lat": 42.78300213349732,
        "lon": 127.38895714623271,
        "alt_km": 408.96749611334235,
        "timestamp": "2025-12-02T13:52:16.063567+00:00",
        "meta_object_name": "STARLINK-35522",
        "meta_object_id": "2025-253Y",
        "meta_epoch": "2025-12-02T05:46:36.246720",
        "meta_mean_motion": 15.50639914,
        "meta_eccentricity": 0.00015881,
        "meta_inclination": 43.0002,
        "meta_ra_of_asc_node": 46.079,
        "meta_arg_of_pericenter": 262.4563,
        "meta_mean_anomaly": 97.6117,
        "meta_ephemeris_type": 0,
        "meta_classification_type": "U",
        "meta_norad_cat_id": 66341,
        "meta_element_set_no": 999,
        "meta_rev_at_epoch": 530,
        "meta_bstar": 0.0014365706,
        "meta_mean_motion_dot": 0.00085041,
        "meta_mean_motion_ddot": 0,
        "tle_line1": "1 66341U 25253Y   25336.24069730  .00085041  00000+0  14366-2 0  9996",
        "tle_line2": "2 66341  43.0002  46.0790 0001588 262.4563  97.6117 15.50639914  5309"
      },
      "geometry": {
        "type": "Point",
        "coordinates": [
          127.38895714623271,
          42.78300213349732
        ]
      }
    },
    {
      "type": "Feature",
      "properties": {
        "norad_id": 66342,
        "name": "STARLINK-35535",
        "group": "last-30-days",
        "lat": 37.453314343212625,
        "lon": 99.44482247234448,
        "alt_km": 439.09481080433216,
        "timestamp": "2025-12-02T13:52:16.063578+00:00",
        "meta_object_name": "STARLINK-35535",
        "meta_object_id": "2025-253Z",
        "meta_epoch": "2025-12-02T06:00:02.999808",
        "meta_mean_motion": 15.42213642,
        "meta_eccentricity": 0.00013429,
        "meta_inclination": 43.0006,
        "meta_ra_of_asc_node": 46.048,
        "meta_arg_of_pericenter": 251.9592,
        "meta_mean_anomaly": 149.2813,
        "meta_ephemeris_type": 0,
        "meta_classification_type": "U",
        "meta_norad_cat_id": 66342,
        "meta_element_set_no": 999,
        "meta_rev_at_epoch": 524,
        "meta_bstar": -0.053698853,
        "meta_mean_motion_dot": -0.02090422,
        "meta_mean_motion_ddot": 0,
        "tle_line1": "1 66342U 25253Z   25336.25003472 -.02090422  00000+0 -53699-1 0  9993",
        "tle_line2": "2 66342  43.0006  46.0480 0001342 251.9592 149.2813 15.42213642  5240"
      },
      "geometry": {
        "type": "Point",
        "coordinates": [
          99.44482247234448,
          37.453314343212625
        ]
      }
    },
    {
      "type": "Feature",
      "properties": {
        "norad_id": 66343,
        "name": "STARLINK-35467",
        "group": "last-30-days",
        "lat": 17.177864092623153,
        "lon": 63.619230036638214,
        "alt_km": 441.82923884083084,
        "timestamp": "2025-12-02T13:52:16.063588+00:00",
        "meta_object_name": "STARLINK-35467",
        "meta_object_id": "2025-253AA",
        "meta_epoch": "2025-12-02T06:00:02.999808",
        "meta_mean_motion": 15.40651648,
        "meta_eccentricity": 0.00013548,
        "meta_inclination": 43.0006,
        "meta_ra_of_asc_node": 46.1356,
        "meta_arg_of_pericenter": 264.414,
        "meta_mean_anomaly": 100.3319,
        "meta_ephemeris_type": 0,
        "meta_classification_type": "U",
        "meta_norad_cat_id": 66343,
        "meta_element_set_no": 999,
        "meta_rev_at_epoch": 524,
        "meta_bstar": 0.0011062363,
        "meta_mean_motion_dot": 0.00046112,
        "meta_mean_motion_ddot": 0,
        "tle_line1": "1 66343U 25253AA  25336.25003472  .00046112  00000+0  11062-2 0  9996",
        "tle_line2": "2 66343  43.0006  46.1356 0001354 264.4140 100.3319 15.40651648  5244"
      },
      "geometry": {
        "type": "Point",
        "coordinates": [
          63.619230036638214,
          17.177864092623153
        ]
      }
    },
    {
      "type": "Feature",
      "properties": {
        "norad_id": 66344,
        "name": "STARLINK-35511",
        "group": "last-30-days",
        "lat": 39.700090998179604,
        "lon": 161.04840499820236,
        "alt_km": 409.1442393156649,
        "timestamp": "2025-12-02T13:52:16.063599+00:00",
        "meta_object_name": "STARLINK-35511",
        "meta_object_id": "2025-253AB",
        "meta_epoch": "2025-12-01T14:12:36.561312",
        "meta_mean_motion": 15.50616705,
        "meta_eccentricity": 0.00018213,
        "meta_inclination": 43.0007,
        "meta_ra_of_asc_node": 49.8062,
        "meta_arg_of_pericenter": 276.3676,
        "meta_mean_anomaly": 83.6977,
        "meta_ephemeris_type": 0,
        "meta_classification_type": "U",
        "meta_norad_cat_id": 66344,
        "meta_element_set_no": 999,
        "meta_rev_at_epoch": 520,
        "meta_bstar": 0.0019436811,
        "meta_mean_motion_dot": 0.00115539,
        "meta_mean_motion_ddot": 0,
        "tle_line1": "1 66344U 25253AB  25335.59208983  .00115539  00000+0  19437-2 0  9991",
        "tle_line2": "2 66344  43.0007  49.8062 0001821 276.3676  83.6977 15.50616705  5200"
      },
      "geometry": {
        "type": "Point",
        "coordinates": [
          161.04840499820236,
          39.700090998179604
        ]
      }
    },
    {
      "type": "Feature",
      "properties": {
        "norad_id": 66345,
        "name": "STARLINK-35440",
        "group": "last-30-days",
        "lat": 40.897092383960995,
        "lon": 155.69395921253982,
        "alt_km": 409.01289967822777,
        "timestamp": "2025-12-02T13:52:16.063610+00:00",
        "meta_object_name": "STARLINK-35440",
        "meta_object_id": "2025-253AC",
        "meta_epoch": "2025-12-02T05:41:10.235328",
        "meta_mean_motion": 15.50637616,
        "meta_eccentricity": 0.0001323,
        "meta_inclination": 43.0001,
        "meta_ra_of_asc_node": 46.0436,
        "meta_arg_of_pericenter": 261.9386,
        "meta_mean_anomaly": 98.1324,
        "meta_ephemeris_type": 0,
        "meta_classification_type": "U",
        "meta_norad_cat_id": 66345,
        "meta_element_set_no": 999,
        "meta_rev_at_epoch": 530,
        "meta_bstar": 0.0014737235,
        "meta_mean_motion_dot": 0.00087266,
        "meta_mean_motion_ddot": 0,
        "tle_line1": "1 66345U 25253AC  25336.23692402  .00087266  00000+0  14737-2 0  9990",
        "tle_line2": "2 66345  43.0001  46.0436 0001323 261.9386  98.1324 15.50637616  5306"
      },
      "geometry": {
        "type": "Point",
        "coordinates": [
          155.69395921253982,
          40.897092383960995
        ]
      }
    },
    {
      "type": "Feature",
      "properties": {
        "norad_id": 66346,
        "name": "STARLINK-35482",
        "group": "last-30-days",
        "lat": 40.39004831555154,
        "lon": 158.12258066960828,
        "alt_km": 409.2411277764022,
        "timestamp": "2025-12-02T13:52:16.063620+00:00",
        "meta_object_name": "STARLINK-35482",
        "meta_object_id": "2025-253AD",
        "meta_epoch": "2025-12-02T05:40:40.575936",
        "meta_mean_motion": 15.50636314,
        "meta_eccentricity": 0.00016069,
        "meta_inclination": 43,
        "meta_ra_of_asc_node": 46.0419,
        "meta_arg_of_pericenter": 259.5785,
        "meta_mean_anomaly": 100.4894,
        "meta_ephemeris_type": 0,
        "meta_classification_type": "U",
        "meta_norad_cat_id": 66346,
        "meta_element_set_no": 999,
        "meta_rev_at_epoch": 530,
        "meta_bstar": 0.0014664975,
        "meta_mean_motion_dot": 0.00086828,
        "meta_mean_motion_ddot": 0,
        "tle_line1": "1 66346U 25253AD  25336.23658074  .00086828  00000+0  14665-2 0  9991",
        "tle_line2": "2 66346  43.0000  46.0419 0001606 259.5785 100.4894 15.50636314  5300"
      },
      "geometry": {
        "type": "Point",
        "coordinates": [
          158.12258066960828,
          40.39004831555154
        ]
      }
    },
    {
      "type": "Feature",
      "properties": {
        "norad_id": 66347,
        "name": "STARLINK-35438",
        "group": "last-30-days",
        "lat": 38.96677897418404,
        "lon": 163.80390294556193,
        "alt_km": 408.4224814533818,
        "timestamp": "2025-12-02T13:52:16.063631+00:00",
        "meta_object_name": "STARLINK-35438",
        "meta_object_id": "2025-253AE",
        "meta_epoch": "2025-12-01T04:55:34.258368",
        "meta_mean_motion": 15.506197,
        "meta_eccentricity": 7.85e-05,
        "meta_inclination": 42.9997,
        "meta_ra_of_asc_node": 52.0629,
        "meta_arg_of_pericenter": 269.9026,
        "meta_mean_anomaly": 90.1745,
        "meta_ephemeris_type": 0,
        "meta_classification_type": "U",
        "meta_norad_cat_id": 66347,
        "meta_element_set_no": 999,
        "meta_rev_at_epoch": 514,
        "meta_bstar": 0.0016452,
        "meta_mean_motion_dot": 0.00097525,
        "meta_mean_motion_ddot": 0,
        "tle_line1": "1 66347U 25253AE  25335.20525762  .00097525  00000+0  16452-2 0  9997",
        "tle_line2": "2 66347  42.9997  52.0629 0000785 269.9026  90.1745 15.50619700  5146"
      },
      "geometry": {
        "type": "Point",
        "coordinates": [
          163.80390294556193,
          38.96677897418404
        ]
      }
    }
  ]
}